NORAD_CAT_ID,OBJECT_NAME,OBJECT_TYPE,EPOCH,MEAN_MOTION,ECCENTRICITY,INCLINATION,RA_OF_ASC_NODE,ARG_OF_PERICENTER,MEAN_ANOMALY,BSTAR,MEAN_MOTION_DOT,MEAN_MOTION_DDOT,TLE_LINE0,TLE_LINE1,TLE_LINE2,SEMIMAJOR_AXIS,PERIOD,APOGEE,PERIGEE,DECAYED
52470.0,STARLINK-3859,PAYLOAD,2023-07-25 22:39:19,15.08889357,0.0001166,53.2171,38.6048,116.5167,243.5945,-0.00054721,-8.998e-05,0.0,0 STARLINK-3859,1 52470U 22049V   23206.94397810 -.00008998  00000-0 -54721-3 0  9997,2 52470  53.2171  38.6048 0001166 116.5167 243.5945 15.08889357 67660,6917.73,95.434,540.401,538.788,0.0
52470.0,STARLINK-3859,PAYLOAD,2023-07-26 14:33:10,15.08859959,0.0001435,53.2187,35.6314,116.6961,243.4178,-0.00027016,-4.587e-05,0.0,0 STARLINK-3859,1 52470U 22049V   23207.60636668 -.00004587  00000-0 -27016-3 0  9995,2 52470  53.2187  35.6314 0001435 116.6961 243.4178 15.08859959 67923,6917.819,95.436,540.677,538.692,0.0
52470.0,STARLINK-3859,PAYLOAD,2023-07-26 22:30:05,15.08844019,0.0001742,53.2158,34.1474,76.3584,283.7602,6.7744e-05,7.9e-06,0.0,0 STARLINK-3859,1 52470U 22049V   23207.93756732  .00000790  00000-0  67744-4 0  9999,2 52470  53.2158  34.1474 0001742  76.3584 283.7602 15.08844019 67971,6917.868,95.437,540.938,538.528,0.0
52470.0,STARLINK-3859,PAYLOAD,2023-07-27 11:13:11,15.08828475,0.000184,53.2153,31.7629,129.866,230.2494,-1.7835e-05,-5.72e-06,0.0,0 STARLINK-3859,1 52470U 22049V   23208.46749703 -.00000572  00000-0 -17835-4 0  9994,2 52470  53.2153  31.7629 0001840 129.8660 230.2494 15.08828475 68053,6917.916,95.438,541.054,538.508,0.0
52470.0,STARLINK-3859,PAYLOAD,2023-07-27 12:48:35,15.08825777,0.0001137,53.217,31.4692,98.8897,261.2223,-5.6408e-05,-1.185e-05,0.0,0 STARLINK-3859,1 52470U 22049V   23208.53374180 -.00001185  00000-0 -56408-4 0  9995,2 52470  53.2170  31.4692 0001137  98.8897 261.2223 15.08825777 67904,6917.924,95.438,540.575,539.002,0.0
52470.0,STARLINK-3859,PAYLOAD,2023-07-27 19:10:07,15.08830205,0.0001262,53.2164,30.2795,100.1839,259.9296,-2.1523e-05,-6.3e-06,0.0,0 STARLINK-3859,1 52470U 22049V   23208.79869991 -.00000630  00000-0 -21523-4 0  9996,2 52470  53.2164  30.2795 0001262 100.1839 259.9296 15.08830205 67940,6917.91,95.438,540.648,538.902,0.0
52470.0,STARLINK-3859,PAYLOAD,2023-07-28 12:39:21,15.0883612,0.0001136,53.2168,27.0082,99.6881,260.4239,3.316e-05,2.4e-06,0.0,0 STARLINK-3859,1 52470U 22049V   23209.52733770  .00000240  00000-0  33160-4 0  9998,2 52470  53.2168  27.0082 0001136  99.6881 260.4239 15.08836120 68055,6917.892,95.438,540.543,538.971,0.0
52470.0,STARLINK-3859,PAYLOAD,2023-07-28 22:11:40,15.08845714,9.74e-05,53.2177,25.2245,99.239,260.8713,6.8975e-05,8.1e-06,0.0,0 STARLINK-3859,1 52470U 22049V   23209.92477153  .00000810  00000-0  68975-4 0  9997,2 52470  53.2177  25.2245 0000974  99.2390 260.8713 15.08845714 68270,6917.863,95.437,540.402,539.054,0.0
52470.0,STARLINK-3859,PAYLOAD,2023-07-29 10:54:46,15.0883181,0.000107,53.2161,22.845,102.9279,257.1833,0.00015082,2.113e-05,0.0,0 STARLINK-3859,1 52470U 22049V   23210.45470034  .00002113  00000-0  15082-3 0  9996,2 52470  53.2161  22.8450 0001070 102.9279 257.1833 15.08831810 68353,6917.905,95.438,540.511,539.03,0.0
52470.0,STARLINK-3859,PAYLOAD,2023-07-29 18:51:41,15.08841269,8.45e-05,53.2185,21.3586,99.6398,260.469,0.00017263,2.461e-05,0.0,0 STARLINK-3859,1 52470U 22049V   23210.78589490  .00002461  00000-0  17263-3 0  9998,2 52470  53.2185  21.3586 0000845  99.6398 260.4690 15.08841269 68409,6917.877,95.437,540.326,539.157,0.0
52470.0,STARLINK-3859,PAYLOAD,2023-07-30 20:17:51,15.08845837,9.14e-05,53.2184,16.6002,92.5176,267.5921,4.2334e-05,3.86e-06,0.0,0 STARLINK-3859,1 52470U 22049V   23211.84573538  .00000386  00000-0  42334-4 0  9994,2 52470  53.2184  16.6002 0000914  92.5176 267.5921 15.08845837 68568,6917.863,95.437,540.36,539.095,0.0
52470.0,STARLINK-3859,PAYLOAD,2023-07-31 10:36:20,15.08837278,9.61e-05,53.2189,13.9252,89.717,270.3932,4.2248e-05,3.85e-06,0.0,0 STARLINK-3859,1 52470U 22049V   23212.44190065  .00000385  00000-0  42248-4 0  9994,2 52470  53.2189  13.9252 0000961  89.7170 270.3932 15.08837278 68658,6917.889,95.438,540.419,539.089,0.0
52470.0,STARLINK-3859,PAYLOAD,2023-07-31 18:33:15,15.08843482,8.73e-05,53.2186,12.4383,82.3375,277.7716,6.9025e-05,8.11e-06,0.0,0 STARLINK-3859,1 52470U 22049V   23212.77309614  .00000811  00000-0  69025-4 0  9998,2 52470  53.2186  12.4383 0000873  82.3375 277.7716 15.08843482 68703,6917.87,95.437,540.339,539.131,0.0
52470.0,STARLINK-3859,PAYLOAD,2023-08-01 16:48:39,15.08837471,8.02e-05,53.2179,8.2762,62.7355,297.3718,0.00011174,1.491e-05,0.0,0 STARLINK-3859,1 52470U 22049V   23213.70045770  .00001491  00000-0  11174-3 0  9998,2 52470  53.2179   8.2762 0000802  62.7355 297.3718 15.08837471 68847,6917.888,95.438,540.308,539.198,0.0
52470.0,STARLINK-3859,PAYLOAD,2023-08-02 16:39:25,15.08858653,0.0001319,53.219,3.815,106.9294,253.1843,-0.00013671,-2.464e-05,0.0,0 STARLINK-3859,1 52470U 22049V   23214.69405046 -.00002464  00000-0 -13671-3 0  9990,2 52470  53.2190   3.8150 0001319 106.9294 253.1843 15.08858653 68999,6917.823,95.436,540.601,538.776,0.0
52470.0,STARLINK-3859,PAYLOAD,2023-08-03 10:08:41,15.08837551,0.0001136,53.2195,0.5449,95.3338,264.7784,2.1263e-05,5.1e-07,0.0,0 STARLINK-3859,1 52470U 22049V   23215.42270022  .00000051  00000-0  21263-4 0  9991,2 52470  53.2195   0.5449 0001136  95.3338 264.7784 15.08837551 69106,6917.888,95.438,540.539,538.967,0.0
52470.0,STARLINK-3859,PAYLOAD,2023-08-03 21:16:22,15.08846486,0.0001037,53.2193,358.4609,94.153,265.9581,5.2239e-05,5.44e-06,0.0,0 STARLINK-3859,1 52470U 22049V   23215.88637326  .00000544  00000-0  52239-4 0  9999,2 52470  53.2193 358.4609 0001037  94.1530 265.9581 15.08846486 69170,6917.861,95.437,540.443,539.008,0.0
52470.0,STARLINK-3859,PAYLOAD,2023-08-04 09:59:29,15.08829901,9.64e-05,53.2198,356.085,74.3747,285.7351,-3.5584e-05,-8.54e-06,0.0,0 STARLINK-3859,1 52470U 22049V   23216.41630833 -.00000854  00000-0 -35584-4 0  9995,2 52470  53.2198 356.0850 0000964  74.3747 285.7351 15.08829901 69252,6917.911,95.438,540.443,539.109,0.0
52470.0,STARLINK-3859,PAYLOAD,2023-08-04 16:21:00,15.08842693,0.0001043,53.2194,354.8954,84.2489,275.8622,4.8746e-05,4.88e-06,0.0,0 STARLINK-3859,1 52470U 22049V   23216.68125875  .00000488  00000-0  48746-4 0  9994,2 52470  53.2194 354.8954 0001043  84.2489 275.8622 15.08842693 69299,6917.872,95.437,540.459,539.016,0.0
52470.0,STARLINK-3859,PAYLOAD,2023-08-04 21:07:09,15.08849595,0.0001015,53.2192,354.0027,83.0614,277.0494,9.8839e-05,1.286e-05,0.0,0 STARLINK-3859,1 52470U 22049V   23216.87997250  .00001286  00000-0  98839-4 0  9994,2 52470  53.2192 354.0027 0001015  83.0614 277.0494 15.08849595 69329,6917.851,95.437,540.418,539.014,0.0
52470.0,STARLINK-3859,PAYLOAD,2023-08-05 09:50:15,15.08835719,9.69e-05,53.219,351.6241,74.0645,286.0454,3.7537e-05,3.1e-06,0.0,0 STARLINK-3859,1 52470U 22049V   23217.40990420  .00000310  00000-0  37537-4 0  9991,2 52470  53.2190 351.6241 0000969  74.0645 286.0454 15.08835719 69407,6917.893,95.438,540.429,539.088,0.0
52470.0,STARLINK-3859,PAYLOAD,2023-08-05 14:36:23,15.08852823,0.0001023,53.2196,350.7311,86.6948,273.4161,0.00017096,2.435e-05,0.0,0 STARLINK-3859,1 52470U 22049V   23217.60860970  .00002435  00000-0  17096-3 0  9996,2 52470  53.2196 350.7311 0001023  86.6948 273.4161 15.08852823 69431,6917.841,95.437,540.414,538.998,0.0
52470.0,STARLINK-3859,PAYLOAD,2023-08-06 01:44:06,15.08841665,0.0001016,53.2194,348.6494,79.8492,280.2615,1.638e-05,-2.7e-07,0.0,0 STARLINK-3859,1 52470U 22049V   23218.07230011 -.00000027  00000-0  16380-4 0  9997,2 52470  53.2194 348.6494 0001016  79.8492 280.2615 15.08841665 69507,6917.875,95.437,540.443,539.037,0.0
52470.0,STARLINK-3859,PAYLOAD,2023-08-06 08:05:41,15.08809625,9.71e-05,53.2193,347.4607,93.0474,267.063,-7.7004e-05,-1.512e-05,0.0,0 STARLINK-3859,1 52470U 22049V   23218.33728569 -.00001512  00000-0 -77004-4 0  9997,2 52470  53.2193 347.4607 0000971  93.0474 267.0630 15.08809625 69540,6917.973,95.439,540.51,539.166,0.0
52470.0,STARLINK-3859,PAYLOAD,2023-08-06 17:37:59,15.08824652,9.78e-05,53.2195,345.6767,91.6816,268.4288,-5.8435e-05,-1.217e-05,0.0,0 STARLINK-3859,1 52470U 22049V   23218.73472131 -.00001217  00000-0 -58435-4 0  9991,2 52470  53.2195 345.6767 0000978  91.6816 268.4288 15.08824652 69608,6917.927,95.439,540.469,539.116,0.0
52470.0,STARLINK-3859,PAYLOAD,2023-08-07 01:34:54,15.08829297,9.07e-05,53.2183,344.1901,97.4799,262.6296,-9.8101e-05,-1.848e-05,0.0,0 STARLINK-3859,1 52470U 22049V   23219.06591367 -.00001848  00000-0 -98101-4 0  9995,2 52470  53.2183 344.1901 0000907  97.4799 262.6296 15.08829297 69655,6917.913,95.438,540.406,539.151,0.0
52470.0,STARLINK-3859,PAYLOAD,2023-08-07 14:17:59,15.08844243,0.0001068,53.219,341.8117,118.397,241.713,0.00013194,1.813e-05,0.0,0 STARLINK-3859,1 52470U 22049V   23219.59583013  .00001813  00000-0  13194-3 0  9990,2 52470  53.2190 341.8117 0001068 118.3970 241.7130 15.08844243 69731,6917.867,95.437,540.471,538.994,0.0
52470.0,STARLINK-3859,PAYLOAD,2023-08-08 07:47:14,15.08842712,8.56e-05,53.2182,338.5412,88.9484,271.1606,0.00050222,7.715e-05,0.0,0 STARLINK-3859,1 52470U 22049V   23220.32447567  .00007715  00000-0  50222-3 0  9996,2 52470  53.2182 338.5412 0000856  88.9484 271.1606 15.08842712 69845,6917.872,95.437,540.329,539.145,0.0
52470.0,STARLINK-3859,PAYLOAD,2023-08-08 17:19:32,15.0885689,9.44e-05,53.2181,336.7573,81.2345,278.8754,0.00055279,8.525e-05,0.0,0 STARLINK-3859,1 52470U 22049V   23220.72190779  .00008525  00000-0  55279-3 0  9997,2 52470  53.2181 336.7573 0000944  81.2345 278.8754 15.08856890 69909,6917.829,95.436,540.347,539.041,0.0
52470.0,STARLINK-3859,PAYLOAD,2023-08-09 07:38:01,15.08842568,4.97e-05,53.2177,334.0811,90.4438,269.6611,2.0613e-05,4.1e-07,0.0,0 STARLINK-3859,1 52470U 22049V   23221.31807040  .00000041  00000-0  20613-4 0  9999,2 52470  53.2177 334.0811 0000497  90.4438 269.6611 15.08842568 69994,6917.873,95.437,540.081,539.394,0.0
